{
  "norad_id": 65940,
  "name": "2025-226C",
  "history": [
    {
      "epoch": "2026-03-28T21:41:12.026688Z",
      "apogee_km": 532.0652840813591,
      "perigee_km": 511.8458048963921,
      "latitude_deg": 1.3232709069801226e-05,
      "longitude_deg": 15.957611050726051,
      "height_km": 520.1749802511307,
      "semi_major_axis_km": 6900.092544488875,
      "eccentricity": 0.00146516,
      "inclination_deg": 97.6376,
      "raan_deg": 167.5751,
      "arg_perigee_deg": 61.4906,
      "mean_anomaly_deg": 298.7799,
      "mean_motion_rev_day": 15.14678248
    },
    {
      "epoch": "2026-03-29T04:01:43.135104Z",
      "apogee_km": 532.0465489036151,
      "perigee_km": 511.82932933199936,
      "latitude_deg": -2.907887465090444e-05,
      "longitude_deg": -79.16715729915614,
      "height_km": 520.0129764138228,
      "semi_major_axis_km": 6900.074939117807,
      "eccentricity": 0.001465,
      "inclination_deg": 97.6377,
      "raan_deg": 167.8404,
      "arg_perigee_deg": 60.5491,
      "mean_anomaly_deg": 299.72,
      "mean_motion_rev_day": 15.14684045
    },
    {
      "epoch": "2026-03-30T03:48:38.688768Z",
      "apogee_km": 531.9563859874552,
      "perigee_km": 511.7449421219053,
      "latitude_deg": -2.34228156747818e-05,
      "longitude_deg": -75.88032711641742,
      "height_km": 519.4715560821742,
      "semi_major_axis_km": 6899.98766405468,
      "eccentricity": 0.0014646,
      "inclination_deg": 97.6378,
      "raan_deg": 168.8354,
      "arg_perigee_deg": 57.5286,
      "mean_anomaly_deg": 302.7359,
      "mean_motion_rev_day": 15.14712783
    },
    {
      "epoch": "2026-03-30T06:58:53.988096Z",
      "apogee_km": 531.9479978446852,
      "perigee_km": 511.7369919070643,
      "latitude_deg": -1.645155439845545e-05,
      "longitude_deg": -123.44170000591798,
      "height_km": 519.4070896767629,
      "semi_major_axis_km": 6899.9794948758745,
      "eccentricity": 0.00146457,
      "inclination_deg": 97.6378,
      "raan_deg": 168.968,
      "arg_perigee_deg": 57.1476,
      "mean_anomaly_deg": 303.1163,
      "mean_motion_rev_day": 15.14715473
    },
    {
      "epoch": "2026-03-30T14:54:32.119776Z",
      "apogee_km": 531.9170226092783,
      "perigee_km": 511.71189475282154,
      "latitude_deg": 2.7400688464887047e-05,
      "longitude_deg": 117.65545157692124,
      "height_km": 519.225848031069,
      "semi_major_axis_km": 6899.951458681049,
      "eccentricity": 0.00146415,
      "inclination_deg": 97.6379,
      "raan_deg": 169.2996,
      "arg_perigee_deg": 56.0932,
      "mean_anomaly_deg": 304.169,
      "mean_motion_rev_day": 15.14724705
    },
    {
      "epoch": "2026-03-30T22:50:10.122720Z",
      "apogee_km": 531.8800070351572,
      "perigee_km": 511.7040625431109,
      "latitude_deg": 9.458305630217694e-06,
      "longitude_deg": -1.2466507304787917,
      "height_km": 519.0560750207763,
      "semi_major_axis_km": 6899.929034789134,
      "eccentricity": 0.00146204,
      "inclination_deg": 97.6379,
      "raan_deg": 169.6314,
      "arg_perigee_deg": 55.0187,
      "mean_anomaly_deg": 305.2415,
      "mean_motion_rev_day": 15.14732089
    },
    {
      "epoch": "2026-03-31T21:01:55.761312Z",
      "apogee_km": 531.7787958937633,
      "perigee_km": 511.6822417584299,
      "latitude_deg": -2.7158914544805903e-05,
      "longitude_deg": 25.830336869752657,
      "height_km": 518.6097625223657,
      "semi_major_axis_km": 6899.867518826096,
      "eccentricity": 0.0014563,
      "inclination_deg": 97.6378,
      "raan_deg": 170.5601,
      "arg_perigee_deg": 52.1197,
      "mean_anomaly_deg": 308.1349,
      "mean_motion_rev_day": 15.14752346
    },
    {
      "epoch": "2026-04-01T20:48:47.821824Z",
      "apogee_km": 531.6635155219083,
      "perigee_km": 511.68442287949074,
      "latitude_deg": -4.349848113994542e-05,
      "longitude_deg": 29.131665271715207,
      "height_km": 518.1525629822764,
      "semi_major_axis_km": 6899.810969200699,
      "eccentricity": 0.0014478,
      "inclination_deg": 97.6374,
      "raan_deg": 171.555,
      "arg_perigee_deg": 48.8597,
      "mean_anomaly_deg": 311.3881,
      "mean_motion_rev_day": 15.14770968
    },
    {
      "epoch": "2026-04-02T17:25:23.914272Z",
      "apogee_km": 531.5193010731136,
      "perigee_km": 511.70101930995224,
      "latitude_deg": -4.5618409059675634e-05,
      "longitude_deg": 79.99695734637749,
      "height_km": 517.7833833444321,
      "semi_major_axis_km": 6899.747160191533,
      "eccentricity": 0.00143616,
      "inclination_deg": 97.637,
      "raan_deg": 172.4171,
      "arg_perigee_deg": 46.0344,
      "mean_anomaly_deg": 314.2069,
      "mean_motion_rev_day": 15.14791981
    },
    {
      "epoch": "2026-04-03T20:22:27.340320Z",
      "apogee_km": 531.2758428468187,
      "perigee_km": 511.6919588818055,
      "latitude_deg": -1.3534869008887285e-05,
      "longitude_deg": 35.7535417397277,
      "height_km": 517.2567397802337,
      "semi_major_axis_km": 6899.620900864312,
      "eccentricity": 0.0014192,
      "inclination_deg": 97.6365,
      "raan_deg": 173.5448,
      "arg_perigee_deg": 41.9551,
      "mean_anomaly_deg": 318.2765,
      "mean_motion_rev_day": 15.14833561
    },
    {
      "epoch": "2026-04-04T20:09:14.372352Z",
      "apogee_km": 531.1268937848381,
      "perigee_km": 511.6633137201534,
      "latitude_deg": 2.0999844065532434e-05,
      "longitude_deg": 39.07607067030317,
      "height_km": 516.8440469165383,
      "semi_major_axis_km": 6899.5321037524955,
      "eccentricity": 0.0014105,
      "inclination_deg": 97.6363,
      "raan_deg": 174.5399,
      "arg_perigee_deg": 38.5799,
      "mean_anomaly_deg": 321.6438,
      "mean_motion_rev_day": 15.14862805
    },
    {
      "epoch": "2026-04-05T13:35:31.966080Z",
      "apogee_km": 531.0370566918436,
      "perigee_km": 511.6488281057091,
      "latitude_deg": -2.9459472254480307e-05,
      "longitude_deg": 137.5163067642548,
      "height_km": 516.5805709199125,
      "semi_major_axis_km": 6899.479942398776,
      "eccentricity": 0.00140505,
      "inclination_deg": 97.6363,
      "raan_deg": 175.2696,
      "arg_perigee_deg": 36.2243,
      "mean_anomaly_deg": 323.9937,
      "mean_motion_rev_day": 15.14879984
    },
    {
      "epoch": "2026-04-05T19:56:00.028032Z",
      "apogee_km": 531.0036698033846,
      "perigee_km": 511.64791688293917,
      "latitude_deg": 1.7968543686151284e-05,
      "longitude_deg": 42.404354280737664,
      "height_km": 516.4907114586589,
      "semi_major_axis_km": 6899.462793343161,
      "eccentricity": 0.0014027,
      "inclination_deg": 97.6363,
      "raan_deg": 175.535,
      "arg_perigee_deg": 35.3508,
      "mean_anomaly_deg": 324.8651,
      "mean_motion_rev_day": 15.14885632
    }
  ]
}